start=new Date('2021-08-23T00:00:00.000Z').valueOf();
sats=[{"MEAN_MOTION":"15.73202347","SEMIMAJOR_AXIS":"6727.888","TLE_LINE1":"1 47985U 21024J   21234.56004836 -.00005147  00000-0 -32207-4 0  9993","CENTER_NAME":"EARTH","INCLINATION":"53.0463","PERIAPSIS":"346.758","BSTAR":"-0.00003220700000","MEAN_MOTION_DOT":"-0.00005147","TLE_LINE2":"2 47985  53.0463 173.0373 0004453  24.8395 335.2836 15.73202347 25064","RCS_SIZE":"LARGE","ELEMENT_SET_NO":"999","OBJECT_ID":"2021-024J","GP_ID":"183273054","DECAY_DATE":null,"MEAN_ANOMALY":"335.2836","REV_AT_EPOCH":"2506","COUNTRY_CODE":"US","EPHEMERIS_TYPE":"0","SITE":"AFETR","EPOCH":"2021-08-22T13:26:28.178304","REF_FRAME":"TEME","MEAN_MOTION_DDOT":"0.0000000000000","FILE":"3101563","CLASSIFICATION_TYPE":"U","ECCENTRICITY":"0.00044530","LAUNCH_DATE":"2021-03-24","ARG_OF_PERICENTER":"24.8395","NORAD_CAT_ID":"47985","OBJECT_NAME":"STARLINK-2308","OBJECT_TYPE":"PAYLOAD","TIME_SYSTEM":"UTC","APOAPSIS":"352.749","RA_OF_ASC_NODE":"173.0373","PERIOD":"91.533","MEAN_ELEMENT_THEORY":"SGP4"},{"RA_OF_ASC_NODE":"166.4277","MEAN_ELEMENT_THEORY":"SGP4","PERIOD":"91.590","ARG_OF_PERICENTER":"29.0289","OBJECT_NAME":"STARLINK-2313","NORAD_CAT_ID":"47986","OBJECT_TYPE":"PAYLOAD","TIME_SYSTEM":"UTC","APOAPSIS":"354.052","CLASSIFICATION_TYPE":"U","LAUNCH_DATE":"2021-03-24","ECCENTRICITY":"0.00022320","EPOCH":"2021-08-22T19:48:56.740608","SITE":"AFETR","REF_FRAME":"TEME","MEAN_MOTION_DDOT":"0.0000000000000","FILE":"3101563","DECAY_DATE":null,"REV_AT_EPOCH":"2518","MEAN_ANOMALY":"331.0852","COUNTRY_CODE":"US","EPHEMERIS_TYPE":"0","MEAN_MOTION_DOT":"0.00002920","TLE_LINE2":"2 47986  53.0333 166.4277 0002232  29.0289 331.0852 15.72222217 25184","RCS_SIZE":"LARGE","ELEMENT_SET_NO":"999","GP_ID":"183271802","OBJECT_ID":"2021-024K","CENTER_NAME":"EARTH","PERIAPSIS":"351.047","INCLINATION":"53.0333","BSTAR":"0.00002622800000","MEAN_MOTION":"15.72222217","SEMIMAJOR_AXIS":"6730.684","TLE_LINE1":"1 47986U 21024K   21234.82565672  .00002920  00000-0  26228-4 0  9993"},{"RA_OF_ASC_NODE":"173.0324","PERIOD":"91.535","MEAN_ELEMENT_THEORY":"SGP4","OBJECT_TYPE":"PAYLOAD","TIME_SYSTEM":"UTC","APOAPSIS":"352.708","ARG_OF_PERICENTER":"17.3942","NORAD_CAT_ID":"47987","OBJECT_NAME":"STARLINK-2311","CLASSIFICATION_TYPE":"U","ECCENTRICITY":"0.00042750","LAUNCH_DATE":"2021-03-24","FILE":"3101563","SITE":"AFETR","EPOCH":"2021-08-22T13:26:09.099456","REF_FRAME":"TEME","MEAN_MOTION_DDOT":"0.0000000000000","MEAN_ANOMALY":"342.7222","REV_AT_EPOCH":"2507","COUNTRY_CODE":"US","EPHEMERIS_TYPE":"0","DECAY_DATE":null,"OBJECT_ID":"2021-024L","GP_ID":"183272052","MEAN_MOTION_DOT":"-0.00006212","TLE_LINE2":"2 47987  53.0466 173.0324 0004275  17.3942 342.7222 15.73174741 25071","RCS_SIZE":"LARGE","ELEMENT_SET_NO":"999","BSTAR":"-0.00003984600000","PERIAPSIS":"346.956","INCLINATION":"53.0466","CENTER_NAME":"EARTH","TLE_LINE1":"1 47987U 21024L   21234.55982754 -.00006212  00000-0 -39846-4 0  9998","MEAN_MOTION":"15.73174741","SEMIMAJOR_AXIS":"6727.967"},{"DECAY_DATE":null,"REV_AT_EPOCH":"2468","MEAN_ANOMALY":"306.0216","EPHEMERIS_TYPE":"0","COUNTRY_CODE":"US","MEAN_MOTION_DOT":"0.00000623","TLE_LINE2":"2 47988  53.0561 202.5787 0002163  54.0974 306.0216 15.06404753 24683","ELEMENT_SET_NO":"999","RCS_SIZE":"LARGE","GP_ID":"183272303","OBJECT_ID":"2021-024M","CENTER_NAME":"EARTH","BSTAR":"0.00006071500000","PERIAPSIS":"545.701","INCLINATION":"53.0561","MEAN_MOTION":"15.06404753","SEMIMAJOR_AXIS":"6925.334","TLE_LINE1":"1 47988U 21024M   21234.92419506  .00000623  00000-0  60715-4 0  9997","RA_OF_ASC_NODE":"202.5787","MEAN_ELEMENT_THEORY":"SGP4","PERIOD":"95.592","ARG_OF_PERICENTER":"54.0974","NORAD_CAT_ID":"47988","OBJECT_NAME":"STARLINK-2306","OBJECT_TYPE":"PAYLOAD","TIME_SYSTEM":"UTC","APOAPSIS":"548.697","CLASSIFICATION_TYPE":"U","LAUNCH_DATE":"2021-03-24","ECCENTRICITY":"0.00021630","EPOCH":"2021-08-22T22:10:50.453184","SITE":"AFETR","REF_FRAME":"TEME","MEAN_MOTION_DDOT":"0.0000000000000","FILE":"3101563"},{"ECCENTRICITY":"0.00044210","LAUNCH_DATE":"2021-03-24","CLASSIFICATION_TYPE":"U","FILE":"3101563","REF_FRAME":"TEME","MEAN_MOTION_DDOT":"0.0000000000000","SITE":"AFETR","EPOCH":"2021-08-22T13:25:49.815840","PERIOD":"91.533","MEAN_ELEMENT_THEORY":"SGP4","RA_OF_ASC_NODE":"173.0300","APOAPSIS":"352.733","TIME_SYSTEM":"UTC","OBJECT_TYPE":"PAYLOAD","NORAD_CAT_ID":"47989","OBJECT_NAME":"STARLINK-2305","ARG_OF_PERICENTER":"21.2060","PERIAPSIS":"346.785","INCLINATION":"53.0466","BSTAR":"-0.00002004400000","CENTER_NAME":"EARTH","TLE_LINE1":"1 47989U 21024N   21234.55960435 -.00003440  00000-0 -20044-4 0  9992","SEMIMAJOR_AXIS":"6727.894","MEAN_MOTION":"15.73200440","COUNTRY_CODE":"US","EPHEMERIS_TYPE":"0","MEAN_ANOMALY":"338.9141","REV_AT_EPOCH":"2507","DECAY_DATE":null,"OBJECT_ID":"2021-024N","GP_ID":"183272554","RCS_SIZE":"LARGE","ELEMENT_SET_NO":"999","TLE_LINE2":"2 47989  53.0466 173.0300 0004421  21.2060 338.9141 15.73200440 25078","MEAN_MOTION_DOT":"-0.00003440"},{"ARG_OF_PERICENTER":"13.1655","NORAD_CAT_ID":"47990","OBJECT_NAME":"STARLINK-2307","OBJECT_TYPE":"PAYLOAD","TIME_SYSTEM":"UTC","APOAPSIS":"352.542","RA_OF_ASC_NODE":"173.0325","MEAN_ELEMENT_THEORY":"SGP4","PERIOD":"91.533","EPOCH":"2021-08-22T13:25:40.242720","SITE":"AFETR","REF_FRAME":"TEME","MEAN_MOTION_DDOT":"0.0000000000000","FILE":"3101563","CLASSIFICATION_TYPE":"U","LAUNCH_DATE":"2021-03-24","ECCENTRICITY":"0.00041460","MEAN_MOTION_DOT":"0.00015718","TLE_LINE2":"2 47990  53.0465 173.0325 0004146  13.1655 346.9471 15.73202518 25062","RCS_SIZE":"LARGE","ELEMENT_SET_NO":"999","GP_ID":"183271302","OBJECT_ID":"2021-024P","DECAY_DATE":null,"REV_AT_EPOCH":"2506","MEAN_ANOMALY":"346.9471","COUNTRY_CODE":"US","EPHEMERIS_TYPE":"0","MEAN_MOTION":"15.73202518","SEMIMAJOR_AXIS":"6727.888","TLE_LINE1":"1 47990U 21024P   21234.55949355  .00015718  00000-0  11615-3 0  9994","CENTER_NAME":"EARTH","PERIAPSIS":"346.964","BSTAR":"0.00011615000000","INCLINATION":"53.0465"},{"PERIAPSIS":"346.738","BSTAR":"0.00012626000000","INCLINATION":"53.0467","CENTER_NAME":"EARTH","TLE_LINE1":"1 47991U 21024Q   21234.55937939  .00017139  00000-0  12626-3 0  9992","MEAN_MOTION":"15.73194792","SEMIMAJOR_AXIS":"6727.910","REV_AT_EPOCH":"2512","MEAN_ANOMALY":"325.9656","COUNTRY_CODE":"US","EPHEMERIS_TYPE":"0","DECAY_DATE":null,"GP_ID":"183271552","OBJECT_ID":"2021-024Q","MEAN_MOTION_DOT":"0.00017139","TLE_LINE2":"2 47991  53.0467 173.0315 0004514  34.1652 325.9656 15.73194792 25126","ELEMENT_SET_NO":"999","RCS_SIZE":"LARGE","CLASSIFICATION_TYPE":"U","LAUNCH_DATE":"2021-03-24","ECCENTRICITY":"0.00045140","FILE":"3101563","EPOCH":"2021-08-22T13:25:30.379296","SITE":"AFETR","MEAN_MOTION_DDOT":"0.0000000000000","REF_FRAME":"TEME","RA_OF_ASC_NODE":"173.0315","MEAN_ELEMENT_THEORY":"SGP4","PERIOD":"91.533","OBJECT_TYPE":"PAYLOAD","TIME_SYSTEM":"UTC","APOAPSIS":"352.812","ARG_OF_PERICENTER":"34.1652","NORAD_CAT_ID":"47991","OBJECT_NAME":"STARLINK-2279"},{"EPOCH":"2021-08-22T05:47:56.568480","SITE":"AFETR","MEAN_MOTION_DDOT":"0.0000000000000","REF_FRAME":"TEME","FILE":"3101345","CLASSIFICATION_TYPE":"U","LAUNCH_DATE":"2021-03-24","ECCENTRICITY":"0.00047460","ARG_OF_PERICENTER":"19.4187","OBJECT_NAME":"STARLINK-2229","NORAD_CAT_ID":"47992","TIME_SYSTEM":"UTC","OBJECT_TYPE":"PAYLOAD","APOAPSIS":"352.909","RA_OF_ASC_NODE":"174.6086","MEAN_ELEMENT_THEORY":"SGP4","PERIOD":"91.532","MEAN_MOTION":"15.73215585","SEMIMAJOR_AXIS":"6727.851","TLE_LINE1":"1 47992U 21024R   21234.24162695 -.00000170  00000-0  32478-5 0  9995","CENTER_NAME":"EARTH","PERIAPSIS":"346.523","BSTAR":"0.00000324780000","INCLINATION":"53.0473","TLE_LINE2":"2 47992  53.0473 174.6086 0004746  19.4187 340.7011 15.73215585 25025","MEAN_MOTION_DOT":"-0.00000170","ELEMENT_SET_NO":"999","RCS_SIZE":"LARGE","GP_ID":"183244174","OBJECT_ID":"2021-024R","DECAY_DATE":null,"REV_AT_EPOCH":"2502","MEAN_ANOMALY":"340.7011","EPHEMERIS_TYPE":"0","COUNTRY_CODE":"US"},{"PERIOD":"95.593","MEAN_ELEMENT_THEORY":"SGP4","RA_OF_ASC_NODE":"187.8667","OBJECT_NAME":"STARLINK-2273","NORAD_CAT_ID":"47993","ARG_OF_PERICENTER":"69.0256","APOAPSIS":"548.563","OBJECT_TYPE":"PAYLOAD","TIME_SYSTEM":"UTC","ECCENTRICITY":"0.00018810","LAUNCH_DATE":"2021-03-24","CLASSIFICATION_TYPE":"U","REF_FRAME":"TEME","MEAN_MOTION_DDOT":"0.0000000000000","SITE":"AFETR","EPOCH":"2021-08-22T20:39:56.683872","FILE":"3101563","DECAY_DATE":null,"COUNTRY_CODE":"US","EPHEMERIS_TYPE":"0","MEAN_ANOMALY":"291.0934","REV_AT_EPOCH":"2494","RCS_SIZE":"LARGE","ELEMENT_SET_NO":"999","MEAN_MOTION_DOT":"0.00000494","TLE_LINE2":"2 47993  53.0554 187.8667 0001881  69.0256 291.0934 15.06384841 24942","OBJECT_ID":"2021-024S","GP_ID":"183273055","CENTER_NAME":"EARTH","BSTAR":"0.00005209900000","PERIAPSIS":"545.957","INCLINATION":"53.0554","SEMIMAJOR_AXIS":"6925.395","MEAN_MOTION":"15.06384841","TLE_LINE1":"1 47993U 21024S   21234.86107273  .00000494  00000-0  52099-4 0  9993"},{"BSTAR":"-0.00007046300000","PERIAPSIS":"553.769","INCLINATION":"53.0544","CENTER_NAME":"EARTH","TLE_LINE1":"1 47994U 21024T   21234.61433574 -.00001257  00000-0 -70463-4 0  9998","SEMIMAJOR_AXIS":"6932.865","MEAN_MOTION":"15.03950865","EPHEMERIS_TYPE":"0","COUNTRY_CODE":"US","REV_AT_EPOCH":"2464","MEAN_ANOMALY":"309.8011","DECAY_DATE":null,"GP_ID":"183271803","OBJECT_ID":"2021-024T","RCS_SIZE":"LARGE","ELEMENT_SET_NO":"999","TLE_LINE2":"2 47994  53.0544 203.4339 0001386  50.3099 309.8011 15.03950865 24644","MEAN_MOTION_DOT":"-0.00001257","LAUNCH_DATE":"2021-03-24","ECCENTRICITY":"0.00013860","CLASSIFICATION_TYPE":"U","FILE":"3101563","MEAN_MOTION_DDOT":"0.0000000000000","REF_FRAME":"TEME","EPOCH":"2021-08-22T14:44:38.607936","SITE":"AFETR","MEAN_ELEMENT_THEORY":"SGP4","PERIOD":"95.748","RA_OF_ASC_NODE":"203.4339","APOAPSIS":"555.691","TIME_SYSTEM":"UTC","OBJECT_TYPE":"PAYLOAD","NORAD_CAT_ID":"47994","OBJECT_NAME":"STARLINK-2290","ARG_OF_PERICENTER":"50.3099"}];
